OBJECT_NAME,OBJECT_ID,EPOCH,MEAN_MOTION,ECCENTRICITY,INCLINATION,RA_OF_ASC_NODE,ARG_OF_PERICENTER,MEAN_ANOMALY,EPHEMERIS_TYPE,CLASSIFICATION_TYPE,NORAD_CAT_ID,ELEMENT_SET_NO,REV_AT_EPOCH,BSTAR,MEAN_MOTION_DOT,MEAN_MOTION_DDOT
GSAT-18,2016-060A,2026-06-11T03:19:54.570720,1.00270920,.00055709,0.0473,110.7592,320.7929,311.9029,0,U,41793,999,3546,0,-.59E-6,0
SKY MUSTER 2 (NBN1B),2016-060B,2026-06-11T05:24:38.701152,1.00270420,.00014011,0.0171,324.7005,113.9365,46.9093,0,U,41794,999,3546,0,-.227E-5,0
HIMAWARI-9,2016-064A,2026-06-11T05:21:32.439168,1.00271360,.00008271,0.0334,156.8886,332.7447,351.1040,0,U,41836,999,3515,0,-.257E-5,0
SHIJIAN-17 (SJ-17),2016-065A,2026-06-10T07:36:58.985568,0.99853566,.0001837,5.7345,72.6861,26.2514,160.1030,0,U,41838,999,3513,0,.38E-6,0
GOES 16,2016-071A,2026-06-11T04:01:38.733888,1.00270276,.00003068,0.3246,85.5740,305.1669,184.5101,0,U,41866,999,3504,0,-.74E-6,0
TIANLIAN 1-04,2016-072A,2026-06-11T05:31:46.458048,1.00270300,.0042037,0.8532,82.9506,89.7071,346.6703,0,U,41869,999,3524,0,.48E-6,0
WGS F8 (USA 272),2016-075A,2026-06-10T19:31:14.551104,1.00269780,.00002155,0.0052,354.0386,337.6670,10.0750,0,U,41879,999,3475,0,-.185E-5,0
FENGYUN 4A,2016-077A,2026-06-11T06:59:18.527424,1.00272121,.00084889,2.3065,80.3577,151.7582,256.1365,0,U,41882,999,3487,0,-.34E-5,0
ECHOSTAR 19,2016-079A,2026-06-10T23:05:44.625120,1.00270731,.00012369,0.0181,359.5365,78.2505,70.8755,0,U,41893,999,3464,0,-.121E-5,0
JCSAT-110A (JCSAT-15),2016-082A,2026-06-10T19:07:03.044064,1.00272705,.00005138,0.0175,336.1538,148.6067,171.2267,0,U,41903,999,3469,0,-.333E-5,0
STAR ONE D1,2016-082B,2026-06-11T03:53:38.786208,1.00272299,.00023008,0.0129,54.0714,42.6953,137.1605,0,U,41904,999,3471,0,-.194E-5,0
TJS-2,2017-001A,2026-06-11T03:17:47.274144,1.00272676,.00005577,0.8170,85.4078,35.9956,254.0863,0,U,41911,999,3465,0,.1E-6,0
SBIRS GEO-4 (USA 273),2017-004A,2026-06-11T04:47:21.826752,1.00271738,.00020261,2.2310,43.0997,31.6622,277.5322,0,U,41937,999,3453,0,.139E-5,0
HISPASAT 36W-1,2017-006A,2026-06-11T04:05:38.030784,1.00272105,.00011187,0.0100,279.8997,163.0236,202.0204,0,U,41942,999,3418,0,-.227E-5,0
TELKOM 3S,2017-007A,2026-06-11T05:14:56.683104,1.00266176,.00020312,0.0196,356.6441,91.7636,7.8791,0,U,41944,999,3408,0,0,0
INTELSAT 32E (IS-32E),2017-007B,2026-06-11T06:10:21.113184,1.00268917,.00005341,0.0031,63.2625,226.5375,19.2132,0,U,41945,999,3416,0,-.252E-5,0
ECHOSTAR 23,2017-014A,2026-06-09T00:50:20.785056,1.00276522,.00014908,0.0199,341.1115,88.1607,90.8350,0,U,42070,999,3384,0,0,0
WGS F9 (USA 275),2017-016A,2026-06-11T04:38:00.225024,1.00269403,.0000148,0.0097,294.9554,302.2528,79.8359,0,U,42075,999,3383,0,-.79E-6,0
SES-10,2017-017A,2026-06-10T06:07:42.491424,1.00268899,.0002765,0.0225,36.2587,50.3805,197.0045,0,U,42432,999,3368,0,-.255E-5,0
CHINASAT 16 (SJ-13),2017-018A,2026-06-11T01:47:34.904256,1.00270155,.00039795,0.0973,90.8430,140.3790,165.6523,0,U,42662,999,3368,0,-.335E-5,0
KOREASAT 7,2017-023A,2026-06-11T01:49:12.247680,1.00270358,.00005276,0.0210,0.8187,72.9544,328.8383,0,U,42691,999,3330,0,-.344E-5,0
SGDC,2017-023B,2026-06-10T11:44:08.969280,1.00270991,.00026976,0.0346,72.3550,17.4346,270.2532,0,U,42692,999,3333,0,-.232E-5,0
GSAT-9,2017-024A,2026-06-11T03:26:16.461312,1.00266260,.00025018,0.0260,53.1982,31.4335,323.8245,0,U,42695,999,3323,0,0,0
INMARSAT 5-F4,2017-025A,2026-06-09T03:20:25.525248,1.00273429,.00000655,0.0177,351.8920,193.2614,178.9583,0,U,42698,999,3319,0,.92E-6,0
SES-15,2017-026A,2026-06-08T12:46:06.263616,1.00270105,.00005164,0.0197,332.0701,88.0806,259.1449,0,U,42709,999,734,0,.76E-6,0
QZS-2 (MICHIBIKI-2),2017-028A,2026-06-09T12:56:43.810944,1.00285994,.07605811,39.4388,243.2674,269.1776,81.0235,0,U,42738,999,754,0,-.147E-5,0
VIASAT-2,2017-029A,2026-06-09T02:44:22.598880,1.00271449,.00001717,0.0187,291.3466,135.2981,162.0599,0,U,42740,999,3312,0,-.249E-5,0
EUTELSAT 172B,2017-029B,2026-06-11T05:30:31.576896,1.00272006,.00002721,0.0464,150.4029,81.0691,282.7509,0,U,42741,999,3368,0,.12E-6,0
GSAT-19,2017-031A,2026-06-09T11:51:12.298176,1.00271642,.00068744,0.1124,90.5949,350.9443,41.9894,0,U,42747,999,3307,0,.142E-5,0
ECHOSTAR 21,2017-032A,2026-06-11T04:44:22.114752,1.00271591,.0002142,1.7717,355.2858,91.3311,254.2851,0,U,42749,999,3303,0,.81E-6,0
BULGARIASAT-1,2017-038A,2026-06-09T01:22:06.159072,1.00269313,.00034291,0.0199,281.2746,171.9526,186.6324,0,U,42801,999,3276,0,.27E-6,0
HELLAS-SAT 3,2017-040A,2026-06-08T23:50:02.722848,1.00273758,.00046263,0.0579,55.5659,354.8875,243.4447,0,U,42814,999,3272,0,.169E-5,0
