1 41793U 16060A 26162.13882605 -.00000059 00000+0 00000+0 0 9990 
2 41793 0.0473 110.7592 0005570 320.7929 311.9029 1.00270920 35468 
1 41794U 16060B 26162.22544793 -.00000227 00000+0 00000+0 0 9991 
2 41794 0.0171 324.7005 0001401 113.9365 46.9093 1.00270420 35466 
1 41836U 16064A 26162.22329212 -.00000257 00000+0 00000+0 0 9992 
2 41836 0.0334 156.8886 0000827 332.7447 351.1040 1.00271360 35151 
1 41838U 16065A 26161.31734937 .00000038 00000+0 00000+0 0 9994 
2 41838 5.7345 72.6861 0001837 26.2514 160.1030 0.99853566 35133 
1 41866U 16071A 26162.16780942 -.00000074 00000+0 00000+0 0 9994 
2 41866 0.3246 85.5740 0000306 305.1669 184.5101 1.00270276 35047 
1 41869U 16072A 26162.23039882 .00000048 00000+0 00000+0 0 9996 
2 41869 0.8532 82.9506 0042037 89.7071 346.6703 1.00270300 35242 
1 41879U 16075A 26161.81336286 -.00000185 00000+0 00000+0 0 9994 
2 41879 0.0052 354.0386 0000215 337.6670 10.0750 1.00269780 34752 
1 41882U 16077A 26162.29118666 -.00000340 00000+0 00000+0 0 9996 
2 41882 2.3065 80.3577 0008488 151.7582 256.1365 1.00272121 34874 
1 41893U 16079A 26161.96232205 -.00000121 00000+0 00000+0 0 9996 
2 41893 0.0181 359.5365 0001236 78.2505 70.8755 1.00270731 34642 
1 41903U 16082A 26161.79656301 -.00000333 00000+0 00000+0 0 9995 
2 41903 0.0175 336.1538 0000513 148.6067 171.2267 1.00272705 34694 
1 41904U 16082B 26162.16225447 -.00000194 00000+0 00000+0 0 9996 
2 41904 0.0129 54.0714 0002300 42.6953 137.1605 1.00272299 34717 
1 41911U 17001A 26162.13735271 .00000010 00000+0 00000+0 0 9990 
2 41911 0.8170 85.4078 0000557 35.9956 254.0863 1.00272676 34657 
1 41937U 17004A 26162.19955818 .00000139 00000+0 00000+0 0 9990 
2 41937 2.2310 43.0997 0002026 31.6622 277.5322 1.00271738 34538 
1 41942U 17006A 26162.17057906 -.00000227 00000+0 00000+0 0 9996 
2 41942 0.0100 279.8997 0001118 163.0236 202.0204 1.00272105 34180 
1 41944U 17007A 26162.21871161 .00000000 00000+0 00000+0 0 9999 
2 41944 0.0196 356.6441 0002031 91.7636 7.8791 1.00266176 34083 
1 41945U 17007B 26162.25718881 -.00000252 00000+0 00000+0 0 9993 
2 41945 0.0031 63.2625 0000534 226.5375 19.2132 1.00268917 34161 
1 42070U 17014A 26160.03496279 .00000000 00000+0 00000+0 0 9999 
2 42070 0.0199 341.1115 0001490 88.1607 90.8350 1.00276522 33842 
1 42075U 17016A 26162.19305816 -.00000079 00000+0 00000+0 0 9998 
2 42075 0.0097 294.9554 0000148 302.2528 79.8359 1.00269403 33832 
1 42432U 17017A 26161.25535291 -.00000255 00000+0 00000+0 0 9990 
2 42432 0.0225 36.2587 0002765 50.3805 197.0045 1.00268899 33687 
1 42662U 17018A 26162.07470954 -.00000335 00000+0 00000+0 0 9990 
2 42662 0.0973 90.8430 0003979 140.3790 165.6523 1.00270155 33686 
1 42691U 17023A 26162.07583620 -.00000344 00000+0 00000+0 0 9993 
2 42691 0.0210 0.8187 0000527 72.9544 328.8383 1.00270358 33306 
1 42692U 17023B 26161.48899270 -.00000232 00000+0 00000+0 0 9995 
2 42692 0.0346 72.3550 0002697 17.4346 270.2532 1.00270991 33331 
1 42695U 17024A 26162.14324608 .00000000 00000+0 00000+0 0 9993 
2 42695 0.0260 53.1982 0002501 31.4335 323.8245 1.00266260 33232 
1 42698U 17025A 26160.13918432 .00000092 00000+0 00000+0 0 9999 
2 42698 0.0177 351.8920 0000065 193.2614 178.9583 1.00273429 33196 
1 42709U 17026A 26159.53201694 .00000076 00000+0 00000+0 0 9992 
2 42709 0.0197 332.0701 0000516 88.0806 259.1449 1.00270105 7343 
1 42738U 17028A 26160.53939596 -.00000147 00000+0 00000+0 0 9997 
2 42738 39.4388 243.2674 0760581 269.1776 81.0235 1.00285994 7547 
1 42740U 17029A 26160.11415045 -.00000249 00000+0 00000+0 0 9996 
2 42740 0.0187 291.3466 0000171 135.2981 162.0599 1.00271449 33123 
1 42741U 17029B 26162.22953214 .00000012 00000+0 00000+0 0 9993 
2 42741 0.0464 150.4029 0000272 81.0691 282.7509 1.00272006 33682 
1 42747U 17031A 26160.49389234 .00000142 00000+0 00000+0 0 9998 
2 42747 0.1124 90.5949 0006874 350.9443 41.9894 1.00271642 33074 
1 42749U 17032A 26162.19747818 .00000081 00000+0 00000+0 0 9998 
2 42749 1.7717 355.2858 0002142 91.3311 254.2851 1.00271591 33036 
1 42801U 17038A 26160.05701573 .00000027 00000+0 00000+0 0 9994 
2 42801 0.0199 281.2746 0003429 171.9526 186.6324 1.00269313 32768 
1 42814U 17040A 26159.99308707 .00000169 00000+0 00000+0 0 9991 
2 42814 0.0579 55.5659 0004626 354.8875 243.4447 1.00273758 32720 
